{
  "type": "FeatureCollection",
  "features": [
    {
      "type": "Feature",
      "properties": {
        "norad_id": 37694,
        "name": "FENGYUN 1C DEB",
        "group": "fengyun-1c-debris",
        "lat": 46.27073942984757,
        "lon": -112.14406052267847,
        "alt_km": 770.117915917649,
        "timestamp": "2025-12-17T23:38:07.143347+00:00",
        "meta_object_name": "FENGYUN 1C DEB",
        "meta_object_id": "1999-025ELK",
        "meta_epoch": "2025-12-14T10:20:27.757248",
        "meta_mean_motion": 14.16668534,
        "meta_eccentricity": 0.01472645,
        "meta_inclination": 98.1988,
        "meta_ra_of_asc_node": 55.9107,
        "meta_arg_of_pericenter": 88.6122,
        "meta_mean_anomaly": 288.1431,
        "meta_ephemeris_type": 0,
        "meta_classification_type": "U",
        "meta_norad_cat_id": 37694,
        "meta_element_set_no": 999,
        "meta_rev_at_epoch": 51728,
        "meta_bstar": 0.0018272074,
        "meta_mean_motion_dot": 4.021e-05,
        "meta_mean_motion_ddot": 0,
        "tle_line1": "1 37694U 99025ELK 25348.43087682  .00004021  00000+0  18272-2 0  9992",
        "tle_line2": "2 37694  98.1988  55.9107 0147264  88.6122 288.1431 14.16668534517286"
      },
      "geometry": {
        "type": "Point",
        "coordinates": [
          -112.14406052267847,
          46.27073942984757
        ]
      }
    },
    {
      "type": "Feature",
      "properties": {
        "norad_id": 37695,
        "name": "FENGYUN 1C DEB",
        "group": "fengyun-1c-debris",
        "lat": 46.87970054184867,
        "lon": -136.61106079210643,
        "alt_km": 1142.295320541779,
        "timestamp": "2025-12-17T23:38:07.143358+00:00",
        "meta_object_name": "FENGYUN 1C DEB",
        "meta_object_id": "1999-025ELL",
        "meta_epoch": "2025-12-15T20:50:38.916672",
        "meta_mean_motion": 13.64992638,
        "meta_eccentricity": 0.04654766,
        "meta_inclination": 98.2113,
        "meta_ra_of_asc_node": 32.72,
        "meta_arg_of_pericenter": 252.5094,
        "meta_mean_anomaly": 291.0319,
        "meta_ephemeris_type": 0,
        "meta_classification_type": "U",
        "meta_norad_cat_id": 37695,
        "meta_element_set_no": 999,
        "meta_rev_at_epoch": 89294,
        "meta_bstar": 0.00074996206,
        "meta_mean_motion_dot": 1.237e-05,
        "meta_mean_motion_ddot": 0,
        "tle_line1": "1 37695U 99025ELL 25349.86850598  .00001237  00000+0  74996-3 0  9997",
        "tle_line2": "2 37695  98.2113  32.7200 0465476 252.5094 291.0319 13.64992638892947"
      },
      "geometry": {
        "type": "Point",
        "coordinates": [
          -136.61106079210643,
          46.87970054184867
        ]
      }
    },
    {
      "type": "Feature",
      "properties": {
        "norad_id": 37704,
        "name": "FENGYUN 1C DEB",
        "group": "fengyun-1c-debris",
        "lat": -31.20199953209118,
        "lon": -0.6545711431819295,
        "alt_km": 879.6746894089129,
        "timestamp": "2025-12-17T23:38:07.143368+00:00",
        "meta_object_name": "FENGYUN 1C DEB",
        "meta_object_id": "1999-025ELV",
        "meta_epoch": "2025-12-10T18:58:47.253216",
        "meta_mean_motion": 13.70500661,
        "meta_eccentricity": 0.02401356,
        "meta_inclination": 98.3199,
        "meta_ra_of_asc_node": 178.1952,
        "meta_arg_of_pericenter": 184.1814,
        "meta_mean_anomaly": 190.5574,
        "meta_ephemeris_type": 0,
        "meta_classification_type": "U",
        "meta_norad_cat_id": 37704,
        "meta_element_set_no": 999,
        "meta_rev_at_epoch": 62338,
        "meta_bstar": 0.0019314833,
        "meta_mean_motion_dot": 2.062e-05,
        "meta_mean_motion_ddot": 0,
        "tle_line1": "1 37704U 99025ELV 25344.79082469  .00002062  00000+0  19315-2 0  9999",
        "tle_line2": "2 37704  98.3199 178.1952 0240135 184.1814 190.5574 13.70500661623389"
      },
      "geometry": {
        "type": "Point",
        "coordinates": [
          -0.6545711431819295,
          -31.20199953209118
        ]
      }
    },
    {
      "type": "Feature",
      "properties": {
        "norad_id": 37707,
        "name": "FENGYUN 1C DEB",
        "group": "fengyun-1c-debris",
        "lat": 44.17708712120743,
        "lon": -172.7516924027253,
        "alt_km": 756.7898647459715,
        "timestamp": "2025-12-17T23:38:07.143378+00:00",
        "meta_object_name": "FENGYUN 1C DEB",
        "meta_object_id": "1999-025ELY",
        "meta_epoch": "2025-12-17T06:35:19.530240",
        "meta_mean_motion": 14.56477467,
        "meta_eccentricity": 0.01433735,
        "meta_inclination": 100.2206,
        "meta_ra_of_asc_node": 356.2824,
        "meta_arg_of_pericenter": 12.733,
        "meta_mean_anomaly": 358.6114,
        "meta_ephemeris_type": 0,
        "meta_classification_type": "U",
        "meta_norad_cat_id": 37707,
        "meta_element_set_no": 999,
        "meta_rev_at_epoch": 85632,
        "meta_bstar": 0.00056858098,
        "meta_mean_motion_dot": 2.832e-05,
        "meta_mean_motion_ddot": 0,
        "tle_line1": "1 37707U 99025ELY 25351.27453160  .00002832  00000+0  56858-3 0  9992",
        "tle_line2": "2 37707 100.2206 356.2824 0143373  12.7330 358.6114 14.56477467856327"
      },
      "geometry": {
        "type": "Point",
        "coordinates": [
          -172.7516924027253,
          44.17708712120743
        ]
      }
    },
    {
      "type": "Feature",
      "properties": {
        "norad_id": 37712,
        "name": "FENGYUN 1C DEB",
        "group": "fengyun-1c-debris",
        "lat": -35.63825731212884,
        "lon": 137.5133036488943,
        "alt_km": 721.6434310871709,
        "timestamp": "2025-12-17T23:38:07.143388+00:00",
        "meta_object_name": "FENGYUN 1C DEB",
        "meta_object_id": "1999-025EMD",
        "meta_epoch": "2025-12-14T15:36:31.768416",
        "meta_mean_motion": 14.36434035,
        "meta_eccentricity": 0.0079125,
        "meta_inclination": 98.8182,
        "meta_ra_of_asc_node": 127.7109,
        "meta_arg_of_pericenter": 347.949,
        "meta_mean_anomaly": 23.1022,
        "meta_ephemeris_type": 0,
        "meta_classification_type": "U",
        "meta_norad_cat_id": 37712,
        "meta_element_set_no": 999,
        "meta_rev_at_epoch": 63988,
        "meta_bstar": 0.00047842497,
        "meta_mean_motion_dot": 1.406e-05,
        "meta_mean_motion_ddot": 0,
        "tle_line1": "1 37712U 99025EMD 25348.65036769  .00001406  00000+0  47842-3 0  9997",
        "tle_line2": "2 37712  98.8182 127.7109 0079125 347.9490  23.1022 14.36434035639882"
      },
      "geometry": {
        "type": "Point",
        "coordinates": [
          137.5133036488943,
          -35.63825731212884
        ]
      }
    },
    {
      "type": "Feature",
      "properties": {
        "norad_id": 37714,
        "name": "FENGYUN 1C DEB",
        "group": "fengyun-1c-debris",
        "lat": 36.36622061856804,
        "lon": -69.56328452659693,
        "alt_km": 771.9099139675873,
        "timestamp": "2025-12-17T23:38:07.143399+00:00",
        "meta_object_name": "FENGYUN 1C DEB",
        "meta_object_id": "1999-025EMF",
        "meta_epoch": "2025-12-17T02:51:19.662912",
        "meta_mean_motion": 14.3227902,
        "meta_eccentricity": 0.00479393,
        "meta_inclination": 98.8925,
        "meta_ra_of_asc_node": 102.9292,
        "meta_arg_of_pericenter": 71.5277,
        "meta_mean_anomaly": 289.1107,
        "meta_ephemeris_type": 0,
        "meta_classification_type": "U",
        "meta_norad_cat_id": 37714,
        "meta_element_set_no": 999,
        "meta_rev_at_epoch": 57572,
        "meta_bstar": 0.0015552397,
        "meta_mean_motion_dot": 4.206e-05,
        "meta_mean_motion_ddot": 0,
        "tle_line1": "1 37714U 99025EMF 25351.11897758  .00004206  00000+0  15552-2 0  9990",
        "tle_line2": "2 37714  98.8925 102.9292 0047939  71.5277 289.1107 14.32279020575725"
      },
      "geometry": {
        "type": "Point",
        "coordinates": [
          -69.56328452659693,
          36.36622061856804
        ]
      }
    },
    {
      "type": "Feature",
      "properties": {
        "norad_id": 37715,
        "name": "FENGYUN 1C DEB",
        "group": "fengyun-1c-debris",
        "lat": -29.61562061997859,
        "lon": 4.743280152705537,
        "alt_km": 965.9393219465946,
        "timestamp": "2025-12-17T23:38:07.143409+00:00",
        "meta_object_name": "FENGYUN 1C DEB",
        "meta_object_id": "1999-025EMG",
        "meta_epoch": "2025-12-16T19:21:59.261760",
        "meta_mean_motion": 13.95420146,
        "meta_eccentricity": 0.0114514,
        "meta_inclination": 98.9563,
        "meta_ra_of_asc_node": 358.4558,
        "meta_arg_of_pericenter": 100.9919,
        "meta_mean_anomaly": 76.3305,
        "meta_ephemeris_type": 0,
        "meta_classification_type": "U",
        "meta_norad_cat_id": 37715,
        "meta_element_set_no": 999,
        "meta_rev_at_epoch": 57860,
        "meta_bstar": 0.00037317934,
        "meta_mean_motion_dot": 4.93e-06,
        "meta_mean_motion_ddot": 0,
        "tle_line1": "1 37715U 99025EMG 25350.80693590  .00000493  00000+0  37318-3 0  9993",
        "tle_line2": "2 37715  98.9563 358.4558 0114514 100.9919  76.3305 13.95420146578603"
      },
      "geometry": {
        "type": "Point",
        "coordinates": [
          4.743280152705537,
          -29.61562061997859
        ]
      }
    }
  ]
}